K08S52N 16.9   0.15 K1014  87.39626  204.20681  191.85384    2.80256  0.1661344  0.22645545   2.6657180  2 E2010-C46    94   3 2006-2010 0.45 M-v 38h MPC        0000          2008 SN52          20100210
K08S56F 15.6   0.15 K1014 164.27795  286.20119   25.24306    6.57723  0.0686806  0.21609269   2.7502742  1 E2010-C46   100   6 1999-2010 0.55 M-v 38h MPC        1000          2008 SF56          20100209
K08S59Q 16.3   0.15 K1014 104.75085  330.44335   49.20120    4.84909  0.1188983  0.21771021   2.7366348  2 E2010-C46    39   4 2002-2010 0.35 M-v 38h MPC        0000          2008 SQ59          20100210
K08S59Z 15.9   0.15 K1014  84.84024   17.44134    9.55921   12.53683  0.1673432  0.22080203   2.7110280  2 E2010-C46    72   3 2006-2010 0.49 M-v 38h MPC        0000          2008 SZ59          20100209
K08S60M 17.3   0.15 K1014 151.16261   38.16488  305.22073    3.30746  0.2282595  0.29421300   2.2388662  1 E2010-C46    56   6 1998-2010 0.47 M-v 38h MPC        0000          2008 SM60          20100210
K08S67D 16.0   0.15 K1014 133.10917   25.77231  313.32441   12.22425  0.2545749  0.22898969   2.6460138  3 E2010-C46    56   4 1999-2010 0.51 M-v 38h MPC        0000          2008 SD67          20100209
K08S83L 16.5   0.15 K1014 116.40059    9.36364  354.77410    7.19644  0.1494258  0.23749994   2.5824210  1 E2010-C46    62   6 2000-2010 0.48 M-v 38h MPC        0000          2008 SL83          20100210
K08S97M 16.0   0.15 K1014  17.30053  116.75916  358.65721    4.76316  0.0910474  0.22183723   2.7025875  0 E2010-C46    70   6 1999-2010 0.39 M-v 38h MPC        1000          2008 SM97          20100209
K08SA6M 16.5   0.15 K1014 106.03296  299.75871   79.06426    1.67325  0.0831377  0.21327620   2.7744343  0 E2010-C46    64   9 1995-2010 0.45 M-v 38h MPC        1000          2008 SM106         20100210
K08SA8Q 16.9   0.15 K1014  26.33442  264.41003  188.58180    8.30647  0.1312728  0.23960412   2.5672797  1 E2010-C46    52   5 2000-2010 0.45 M-v 38h MPC        1000          2008 SQ108         20100209
K08SB8B 17.1   0.15 K1014 151.54424  338.75439   15.00048    4.19966  0.0649098  0.27502285   2.3418381  3 E2010-C46    59   3 2003-2010 0.43 M-v 38h MPC        0000          2008 SB118         20100209
K08SH6C 18.0   0.15 K1014 156.17483  120.41368  227.36618    3.49091  0.1948605  0.29911042   2.2143607  4 E2010-C46    54   2 2004-2008 0.47 M-v 38h MPC        0000          2008 SC176         20081130
K08SJ7M 16.8   0.15 K1014 139.75880  276.33716   73.06622    3.62069  0.0934602  0.22670387   2.6637703  1 E2010-C46    44   5 2001-2010 0.30 M-v 38h MPC        0000          2008 SM197         20100210
K08SK8A 15.6   0.15 K1014 120.86883  227.47529  127.23683   13.66632  0.2644770  0.22935297   2.6432189  1 E2010-C46    54   5 1999-2010 0.49 M-v 38h MPC        1000          2008 SA208         20100210
K08SL8G 16.4   0.15 K1014 153.64118    0.14019  332.29101    9.11116  0.2236111  0.24587295   2.5234549  3 E2010-C46    57   5 2002-2010 0.49 M-v 38h MPC        0000          2008 SG218         20100210
K08SM2Y 16.8   0.15 K1014  72.42215   58.65436  344.58548    8.08341  0.1537517  0.21523021   2.7576167  1 E2010-C46    38   4 2003-2010 0.45 M-v 38h MPC        0000          2008 SY222         20100210
K08SP5C 16.2   0.15 K1014 185.45554  137.32048  153.05143    7.26978  0.0516437  0.21549703   2.7553399  2 E2010-C46    42   5 2002-2010 0.61 M-v 38h MPC        0000          2008 SC255         20100208
K08SR2H 15.2   0.15 K1014  76.65724  345.75575   52.61738   10.92220  0.1040494  0.14683723   3.5583221  1 E2010-C46    36   5 2001-2010 0.44 M-v 38h MPC        0000          2008 SH272         20100209
K08SS0G 16.9   0.15 K1014 287.86120   25.70258  197.28292    5.92776  0.1114091  0.26299341   2.4127156  2 E2010-C46    29   4 2003-2010 0.53 M-v 38h MPC        0000          2008 SG280         20100209
K08ST0Q 17.5   0.15 K1014  98.13285  323.92306   79.58846    3.65324  0.1941407  0.25645785   2.4535338  2 E2010-C46    34   3 2000-2008 0.41 M-v 38h MPC        0000          2008 SQ290         20081231
K08ST1F 17.3   0.15 K1014 164.57425  238.90811   64.40094    3.98309  0.1977887  0.26917369   2.3756419  1 E2010-C46    37   6 2000-2010 0.55 M-v 38h MPC        0000          2008 SF291         20100106
K08ST6D 16.9   0.15 K1014 109.75142  243.10996  124.03804   12.92570  0.3323547  0.23444231   2.6048261  2 E2010-C46    28   3 1997-2008 0.63 M-v 38h MPC        0000          2008 SD296         20081027
K08SU5D 17.6   0.15 K1014 232.50670  101.22981  157.59907    5.61168  0.2530093  0.30933592   2.1652887  2 E2010-C46    36   4 2001-2008 0.43 M-v 38h MPC        1007          2008 SD305         20081103
K08SU9P 17.7   0.15 K1014 113.91473  355.52369   48.04703    2.32502  0.1839352  0.25728716   2.4482587  2 E2010-C46    31   3 2000-2008 0.37 M-v 38h MPC        0000          2008 SP309         20081229
K08T04M 16.6   0.15 K1014  59.15172  230.92581  193.07322    3.64656  0.1520054  0.21419341   2.7665083  0 E2010-C46    84   6 1994-2010 0.46 M-v 38h MPC        1000          2008 TM4           20100209
K08T06W 16.6   0.15 K1014 335.43536  320.00928  195.72445    5.74168  0.1027215  0.25173269   2.4841414  2 E2010-C46    66   5 2002-2010 0.52 M-v 38h MPC        1000          2008 TW6           20100209
K08T09M 16.0   0.15 K1014  56.51148  170.66938  238.59531   13.92623  0.0648798  0.23449541   2.6044328  1 E2010-C46    37   4 2005-2010 0.59 M-v 38h MPC        0000          2008 TM9           20100211
K08T26A 17.2   0.15 K1014 163.47316  246.26178   97.01984    4.35689  0.1335563  0.29385107   2.2407042  2 E2010-C46    54   4 2001-2010 0.59 M-v 38h MPC        0000          2008 TA26          20100210
K08T33M 18.0   0.15 K1014 195.44344  137.62316  172.92532    3.38873  0.1360182  0.30037413   2.2081455  1 E2010-C46    39   6 1995-2010 0.36 M-v 38h MPC        0000          2008 TM33          20100210
K08T54C 17.0   0.15 K1014 355.10069  346.72999  165.86635    5.02782  0.1175161  0.25918017   2.4363231  1 E2010-C46    33   4 2004-2010 0.34 M-v 38h MPC        0000          2008 TC54          20100210
K08T55F 17.7   0.15 K1014 171.82471  293.34656   14.76967    2.34797  0.2413432  0.27395702   2.3479081  3 E2010-C46    45   3 2000-2008 0.40 M-v 38h MPC        0000          2008 TF55          20081204
K08T67L 16.3   0.15 K1014 107.43894  231.59338  150.45045    3.04388  0.1426724  0.22486505   2.6782724  1 E2010-C46    68   6 1995-2010 0.51 M-v 38h MPC        1000          2008 TL67          20100210
K08TB0Z 15.9   0.15 K1014  75.23176   29.55498    9.54251   10.03266  0.1051884  0.18860869   3.0113524  3 E2010-C46    47   3 2003-2010 0.48 M-v 38h MPC        0000          2008 TZ110         20100209
K08TB2D 15.2   0.15 K1014  32.02275   89.47620  357.57670    9.88440  0.0693006  0.18903083   3.0068675  1 E2010-C46    63   5 2000-2010 0.54 M-v 38h MPC        1000          2008 TD112         20100209
K08TE6F 18.7   0.15 K1014 109.52191  259.13327  135.93395    1.71867  0.1803016  0.27379832   2.3488153  2 E2010-C46    30   3 2001-2008 0.46 M-v 38h MPC        0000          2008 TF146         20081102
K08TF7Y 15.2   0.15 K1014 329.38070  181.91686  344.72562   13.90666  0.0466696  0.22227601   2.6990296  1 E2010-C46    60   4 2001-2010 0.59 M-v 38h MPC        0000          2008 TY157         20100209
K08TF8E 15.1   0.15 K1014 116.62036  358.60507    2.40663   11.68862  0.1089632  0.19060617   2.9902769  1 E2010-C46    61   6 1995-2010 0.56 M-v 38h MPC        1000          2008 TE158         20100209
K08U78J 15.9   0.15 K1014 345.30866  341.63031  172.29718    6.76298  0.0372176  0.22561763   2.6723132  1 E2010-C46    47   7 1999-2010 0.52 M-v 38h MPC        0000          2008 UJ78          20100209
K08UC2N 16.8   0.15 K1014 246.20592  312.71935  310.83170    4.85426  0.0952240  0.24708350   2.5152060  0 E2010-C46    43   6 2002-2010 0.39 M-v 38h MPC        0000          2008 UN122         20100210
K08UE8R 14.9   0.15 K1014 234.04031  210.79454   47.52894    8.68172  0.0646897  0.18360450   3.0658236  0 E2010-C46    78   7 1997-2010 0.50 M-v 38h MPC        1000          2008 UR148         20100209
K08UF0P 17.0   0.15 K1014 244.01426  128.47033  122.70272    2.05707  0.1578881  0.25936762   2.4351490  0 E2010-C46    40   5 2003-2008 0.32 M-v 38h MPC        1000          2008 UP150         20081027
K08UF1E 16.2   0.15 K1014  98.35793  174.00298  209.47389    1.35474  0.2153919  0.18737587   3.0245466  1 E2010-C46    83   4 2002-2010 0.43 M-v 38h MPC        0000          2008 UE151         20100210
K08UG0F 16.1   0.15 K1014 144.12025  313.63048   42.18806    5.76665  0.2302974  0.23273397   2.6175573  1 E2010-C46    82   7 1994-2010 0.49 M-v 38h MPC        0000          2008 UF160         20100210
K08UK2R 15.7   0.15 K1014  57.60341  186.56240  233.72160    9.12056  0.1504276  0.18060337   3.0996939  1 E2010-C46    62   4 2002-2010 0.36 M-v 38h MPC        1000          2008 UR202         20100209
K08UL6Z 16.4   0.15 K1014  89.06836   70.11155  318.04849    7.16692  0.2332485  0.22271181   2.6955075  1 E2010-C46    52   4 2001-2010 0.52 M-v 38h MPC        0000          2008 UZ216         20100210
K08UL8N 16.0   0.15 K1014 299.84024  153.17532   32.25547   10.27345  0.0185400  0.17851523   3.1238190  0 E2010-C46    39   5 1997-2010 0.34 M-v 38h MPC        0000          2008 UN218         20100209
K08UR5P 16.0   0.15 K1014  53.52618   42.02140   33.20872    6.20676  0.0613277  0.19989052   2.8969517  1 E2010-C46    55   4 2003-2010 0.45 M-v 38h MPC        1000          2008 UP275         20100209
K08UR7A 15.9   0.15 K1014  20.30452   73.89557   37.21058    5.94863  0.1220401  0.18452175   3.0556551  1 E2010-C46    57   4 1997-2010 0.35 M-v 38h MPC        0000          2008 UA277         20100209
K08UR7X 16.2   0.15 K1014  46.23388   34.47463   44.45363    2.53543  0.1198163  0.18232438   3.0801572  0 E2010-C46    69   6 1992-2010 0.52 M-v 38h MPC        1000          2008 UX277         20100210
